{
  "norad_id": 40946,
  "name": "MORELOS 3",
  "history": [
    {
      "epoch": "2026-05-02T08:48:57.652416Z",
      "apogee_km": 35799.04076118893,
      "perigee_km": 35774.003386630844,
      "latitude_deg": -2.2634701615190598,
      "longitude_deg": -113.1653245267762,
      "height_km": 35794.60835979898,
      "semi_major_axis_km": 42164.65907390989,
      "eccentricity": 0.0002969,
      "inclination_deg": 3.1523,
      "raan_deg": 13.8171,
      "arg_perigee_deg": 356.5087,
      "mean_anomaly_deg": 229.1041,
      "mean_motion_rev_day": 1.00272045
    }
  ]
}